{
  "type": "FeatureCollection",
  "features": [
    {
      "type": "Feature",
      "properties": {
        "norad_id": 66468,
        "name": "STARLINK-35331",
        "group": "last-30-days",
        "lat": -15.177387687004773,
        "lon": -104.05514282569395,
        "alt_km": 445.12930705647796,
        "timestamp": "2025-12-14T20:40:30.513864+00:00",
        "meta_object_name": "STARLINK-35331",
        "meta_object_id": "2025-262N",
        "meta_epoch": "2025-12-14T06:00:02.999808",
        "meta_mean_motion": 15.40674765,
        "meta_eccentricity": 0.00012984,
        "meta_inclination": 43.0003,
        "meta_ra_of_asc_node": 62.545,
        "meta_arg_of_pericenter": 267.4623,
        "meta_mean_anomaly": 139.7043,
        "meta_ephemeris_type": 0,
        "meta_classification_type": "U",
        "meta_norad_cat_id": 66468,
        "meta_element_set_no": 999,
        "meta_rev_at_epoch": 588,
        "meta_bstar": 0.0012200852,
        "meta_mean_motion_dot": 0.0005096,
        "meta_mean_motion_ddot": 0,
        "tle_line1": "1 66468U 25262N   25348.25003472  .00050960  00000+0  12201-2 0  9999",
        "tle_line2": "2 66468  43.0003  62.5450 0001298 267.4623 139.7043 15.40674765  5887"
      },
      "geometry": {
        "type": "Point",
        "coordinates": [
          -104.05514282569395,
          -15.177387687004773
        ]
      }
    },
    {
      "type": "Feature",
      "properties": {
        "norad_id": 66469,
        "name": "STARLINK-35451",
        "group": "last-30-days",
        "lat": -6.332997953920253,
        "lon": 51.81364224441895,
        "alt_km": 414.39119694297733,
        "timestamp": "2025-12-14T20:40:30.513875+00:00",
        "meta_object_name": "STARLINK-35451",
        "meta_object_id": "2025-262P",
        "meta_epoch": "2025-12-12T13:03:41.779584",
        "meta_mean_motion": 15.50210236,
        "meta_eccentricity": 0.00011033,
        "meta_inclination": 42.9999,
        "meta_ra_of_asc_node": 72.2116,
        "meta_arg_of_pericenter": 239.0773,
        "meta_mean_anomaly": 120.9979,
        "meta_ephemeris_type": 0,
        "meta_classification_type": "U",
        "meta_norad_cat_id": 66469,
        "meta_element_set_no": 999,
        "meta_rev_at_epoch": 553,
        "meta_bstar": 0.0029076405,
        "meta_mean_motion_dot": 0.00171764,
        "meta_mean_motion_ddot": 0,
        "tle_line1": "1 66469U 25262P   25346.54423356  .00171764  00000+0  29076-2 0  9991",
        "tle_line2": "2 66469  42.9999  72.2116 0001103 239.0773 120.9979 15.50210236  5535"
      },
      "geometry": {
        "type": "Point",
        "coordinates": [
          51.81364224441895,
          -6.332997953920253
        ]
      }
    },
    {
      "type": "Feature",
      "properties": {
        "norad_id": 66470,
        "name": "STARLINK-35655",
        "group": "last-30-days",
        "lat": -23.014526440963746,
        "lon": -93.890609202669,
        "alt_km": 445.49847403388594,
        "timestamp": "2025-12-14T20:40:30.513886+00:00",
        "meta_object_name": "STARLINK-35655",
        "meta_object_id": "2025-262Q",
        "meta_epoch": "2025-12-14T06:00:02.999808",
        "meta_mean_motion": 15.40657648,
        "meta_eccentricity": 0.00013935,
        "meta_inclination": 43.0003,
        "meta_ra_of_asc_node": 62.5151,
        "meta_arg_of_pericenter": 259.6907,
        "meta_mean_anomaly": 159.9029,
        "meta_ephemeris_type": 0,
        "meta_classification_type": "U",
        "meta_norad_cat_id": 66470,
        "meta_element_set_no": 999,
        "meta_rev_at_epoch": 588,
        "meta_bstar": 0.0016964459,
        "meta_mean_motion_dot": 0.00071124,
        "meta_mean_motion_ddot": 0,
        "tle_line1": "1 66470U 25262Q   25348.25003472  .00071124  00000+0  16964-2 0  9997",
        "tle_line2": "2 66470  43.0003  62.5151 0001393 259.6907 159.9029 15.40657648  5881"
      },
      "geometry": {
        "type": "Point",
        "coordinates": [
          -93.890609202669,
          -23.014526440963746
        ]
      }
    },
    {
      "type": "Feature",
      "properties": {
        "norad_id": 66471,
        "name": "STARLINK-35569",
        "group": "last-30-days",
        "lat": -30.126356380033158,
        "lon": -82.52463191626775,
        "alt_km": 445.9638909715213,
        "timestamp": "2025-12-14T20:40:30.513898+00:00",
        "meta_object_name": "STARLINK-35569",
        "meta_object_id": "2025-262R",
        "meta_epoch": "2025-12-14T06:00:02.999808",
        "meta_mean_motion": 15.40650383,
        "meta_eccentricity": 0.00012447,
        "meta_inclination": 43.0001,
        "meta_ra_of_asc_node": 62.4839,
        "meta_arg_of_pericenter": 259.7799,
        "meta_mean_anomaly": 172.2509,
        "meta_ephemeris_type": 0,
        "meta_classification_type": "U",
        "meta_norad_cat_id": 66471,
        "meta_element_set_no": 999,
        "meta_rev_at_epoch": 588,
        "meta_bstar": 0.0017732277,
        "meta_mean_motion_dot": 0.00074371,
        "meta_mean_motion_ddot": 0,
        "tle_line1": "1 66471U 25262R   25348.25003472  .00074371  00000+0  17732-2 0  9999",
        "tle_line2": "2 66471  43.0001  62.4839 0001244 259.7799 172.2509 15.40650383  5887"
      },
      "geometry": {
        "type": "Point",
        "coordinates": [
          -82.52463191626775,
          -30.126356380033158
        ]
      }
    },
    {
      "type": "Feature",
      "properties": {
        "norad_id": 66472,
        "name": "STARLINK-35567",
        "group": "last-30-days",
        "lat": -40.52753783877606,
        "lon": -54.549541798114745,
        "alt_km": 446.5324721007264,
        "timestamp": "2025-12-14T20:40:30.513909+00:00",
        "meta_object_name": "STARLINK-35567",
        "meta_object_id": "2025-262S",
        "meta_epoch": "2025-12-14T06:00:02.999808",
        "meta_mean_motion": 15.40683498,
        "meta_eccentricity": 8.309e-05,
        "meta_inclination": 43.0004,
        "meta_ra_of_asc_node": 62.4233,
        "meta_arg_of_pericenter": 275.0014,
        "meta_mean_anomaly": 181.9456,
        "meta_ephemeris_type": 0,
        "meta_classification_type": "U",
        "meta_norad_cat_id": 66472,
        "meta_element_set_no": 999,
        "meta_rev_at_epoch": 588,
        "meta_bstar": 0.0022038265,
        "meta_mean_motion_dot": 0.00092831,
        "meta_mean_motion_ddot": 0,
        "tle_line1": "1 66472U 25262S   25348.25003472  .00092831  00000+0  22038-2 0  9996",
        "tle_line2": "2 66472  43.0004  62.4233 0000830 275.0014 181.9456 15.40683498  5881"
      },
      "geometry": {
        "type": "Point",
        "coordinates": [
          -54.549541798114745,
          -40.52753783877606
        ]
      }
    },
    {
      "type": "Feature",
      "properties": {
        "norad_id": 66473,
        "name": "STARLINK-35568",
        "group": "last-30-days",
        "lat": 5.840794996203596,
        "lon": 64.9103537355625,
        "alt_km": 409.46167484074977,
        "timestamp": "2025-12-14T20:40:30.513919+00:00",
        "meta_object_name": "STARLINK-35568",
        "meta_object_id": "2025-262T",
        "meta_epoch": "2025-12-11T07:39:08.069760",
        "meta_mean_motion": 15.50526439,
        "meta_eccentricity": 0.00047596,
        "meta_inclination": 42.9998,
        "meta_ra_of_asc_node": 79.3576,
        "meta_arg_of_pericenter": 252.6139,
        "meta_mean_anomaly": 107.4201,
        "meta_ephemeris_type": 0,
        "meta_classification_type": "U",
        "meta_norad_cat_id": 66473,
        "meta_element_set_no": 999,
        "meta_rev_at_epoch": 534,
        "meta_bstar": 0.0038259112,
        "meta_mean_motion_dot": 0.00230458,
        "meta_mean_motion_ddot": 0,
        "tle_line1": "1 66473U 25262T   25345.31884340  .00230458  00000+0  38259-2 0  9993",
        "tle_line2": "2 66473  42.9998  79.3576 0004759 252.6139 107.4201 15.50526439  5346"
      },
      "geometry": {
        "type": "Point",
        "coordinates": [
          64.9103537355625,
          5.840794996203596
        ]
      }
    },
    {
      "type": "Feature",
      "properties": {
        "norad_id": 66474,
        "name": "STARLINK-35620",
        "group": "last-30-days",
        "lat": 7.152317879154181,
        "lon": 66.3426716966477,
        "alt_km": 409.6845363771672,
        "timestamp": "2025-12-14T20:40:30.513930+00:00",
        "meta_object_name": "STARLINK-35620",
        "meta_object_id": "2025-262U",
        "meta_epoch": "2025-12-12T13:00:34.651008",
        "meta_mean_motion": 15.51135131,
        "meta_eccentricity": 0.00014651,
        "meta_inclination": 43.0009,
        "meta_ra_of_asc_node": 72.1929,
        "meta_arg_of_pericenter": 279.0822,
        "meta_mean_anomaly": 80.9873,
        "meta_ephemeris_type": 0,
        "meta_classification_type": "U",
        "meta_norad_cat_id": 66474,
        "meta_element_set_no": 999,
        "meta_rev_at_epoch": 553,
        "meta_bstar": 0.0027986206,
        "meta_mean_motion_dot": 0.00170828,
        "meta_mean_motion_ddot": 0,
        "tle_line1": "1 66474U 25262U   25346.54206772  .00170828  00000+0  27986-2 0  9996",
        "tle_line2": "2 66474  43.0009  72.1929 0001465 279.0822  80.9873 15.51135131  5535"
      },
      "geometry": {
        "type": "Point",
        "coordinates": [
          66.3426716966477,
          7.152317879154181
        ]
      }
    }
  ]
}